STARLINK-30530          
1 58005U 23153Q   24208.80142392 -.00001956  00000+0 -12969-3 0  9999
2 58005  43.0049  39.2750 0001577 253.9438 106.1231 15.02546637 46003
STARLINK-30526          
1 58006U 23153R   24208.81536963  .00005593  00000+0  42865-3 0  9999
2 58006  43.0057  14.1941 0001272 281.3369  78.7330 15.02544391 46286
STARLINK-30527          
1 58007U 23153S   24208.53395108  .00019586  00000+0  75598-3 0  9999
2 58007  43.0000 299.2020 0002084 285.3444  74.7177 15.25935719 47086
STARLINK-30522          
1 58008U 23153T   24208.62530042  .00000187  00000+0  28948-4 0  9993
2 58008  43.0053  40.5322 0001430 272.1806  87.8873 15.02539080 45966
STARLINK-30486          
1 58009U 23153U   24208.60531707  .00000270  00000+0  35089-4 0  9998
2 58009  43.0060  40.3819 0001730 276.6757  83.3889 15.02543130 45869
STARLINK-30520          
1 58010U 23153V   24208.59544680  .00000591  00000+0  58842-4 0  9990
2 58010  43.0054  41.1549 0002057 253.7546 106.3070 15.02533322 45857
STARLINK-30497          
1 58011U 23153W   24208.59211383  .00002229  00000+0  18003-3 0  9996
2 58011  43.0053  41.1318 0001374 262.4012  97.6675 15.02528724 45951
STARLINK-30525          
1 58012U 23153X   24208.24973945  .00000513  00000+0  53016-4 0  9996
2 58012  43.0038  42.8579 0001153 272.8522  87.2188 15.02534958 45903
STARLINK-30514          
1 58028U 23156A   24208.59445508  .00001089  00000+0  51979-4 0  9998
2 58028  53.1585 311.9636 0001509  77.9813 282.1356 15.28029649 45700
STARLINK-30518          
1 58029U 23156B   24208.58976917  .00002204  00000+0  92145-4 0  9991
2 58029  53.1586 311.9400 0002020 103.4349 256.6876 15.28043596 45709
STARLINK-30549          
1 58030U 23156C   24208.45831870  .00002057  00000+0  86932-4 0  9990
2 58030  53.1658 310.2235 0002305 121.2093 238.9133 15.28023781 45386
STARLINK-30556          
1 58031U 23156D   24208.56176070  .00001298  00000+0  59556-4 0  9995
2 58031  53.1038 312.2684 0002092  62.8395 297.2818 15.28016872 45681
STARLINK-30561          
1 58032U 23156E   24208.43969159  .00000980  00000+0  48042-4 0  9995
2 58032  53.1742 310.7641 0001925 103.5164 256.6050 15.28030401 45705
STARLINK-30562          
1 58033U 23156F   24208.34154278  .00000324  00000+0  41995-4 0  9996
2 58033  53.1586 332.7473 0001856  88.7147 271.4055 15.04921558 45387
STARLINK-30565          
1 58034U 23156G   24208.67333768  .00007939  00000+0  29861-3 0  9992
2 58034  53.1583 310.1517 0001547  98.8983 261.2192 15.28060929 45731
STARLINK-30438          
1 58035U 23156H   24208.70186881  .00001901  00000+0  81260-4 0  9994
2 58035  53.1584 311.1993 0001390  82.8165 277.2993 15.28034395 45388
STARLINK-30437          
1 58036U 23156J   24208.43589881  .00001788  00000+0  77186-4 0  9997
2 58036  53.1627 312.3797 0001767  99.3059 260.8140 15.28025243 45637
STARLINK-30533          
1 58037U 23156K   24208.59967796  .00001229  00000+0  10523-3 0  9991
2 58037  53.1648 331.5082 0001116  99.7565 260.3551 15.04919446 45424
STARLINK-30560          
1 58038U 23156L   24208.47298213  .00001191  00000+0  55647-4 0  9995
2 58038  53.1645 312.6142 0001913 117.0288 243.0908 15.28029654 45423
STARLINK-30559          
1 58039U 23156M   24208.68003618  .00005271  00000+0  38719-3 0  9995
2 58039  53.1585 331.3050 0002081  87.2122 272.9106 15.04934913 45434
STARLINK-30555          
1 58040U 23156N   24208.80963313  .00002698  00000+0  20772-3 0  9998
2 58040  53.1616 330.7003 0001296  81.9753 278.1383 15.04938528 45453
STARLINK-30542          
1 58041U 23156P   24208.55704490  .00012380  00000+0  45845-3 0  9997
2 58041  53.1659 311.8568 0002204  98.6803 261.4447 15.28049456 45699
STARLINK-30563          
1 58042U 23156Q   24208.46786718 -.00001261  00000+0 -32837-4 0  9997
2 58042  53.1663 311.7109 0002294  90.0301 270.0962 15.28033225 45698
STARLINK-30564          
1 58043U 23156R   24208.44438151  .00028677  00000+0  10443-2 0  9996
2 58043  53.1632 310.8532 0001397  80.4388 279.6770 15.28009432 45703
STARLINK-30547          
1 58044U 23156S   24208.70244152  .00002602  00000+0  20102-3 0  9996
2 58044  53.1601 330.7021 0001329  85.4693 274.6449 15.04934602 45431
STARLINK-30550          
1 58045U 23156T   24208.78781829  .00001341  00000+0  43485-4 0  9991
2 58045  53.1612 232.5817 0001466  83.3137 276.8035 15.39627284 46808
STARLINK-30548          
1 58046U 23156U   24208.33724940  .00000647  00000+0  64575-4 0  9995
2 58046  53.1625 332.7242 0001501  89.9301 270.1861 15.04922021 45333
STARLINK-30529          
1 58047U 23156V   24208.32759010  .00001747  00000+0  14138-3 0  9992
2 58047  53.1607 332.6596 0001156  88.2859 271.8264 15.04922586 45332
STARLINK-30554          
1 58048U 23156W   24208.72289144 -.00007795  00000+0 -52650-3 0  9995
2 58048  53.1597 330.8691 0001802  93.7067 266.4128 15.04872550 45331
STARLINK-30568          
1 58051U 23158A   24208.73918715  .00001431  00000+0  12095-3 0  9993
2 58051  43.0047   1.6871 0001487 270.0861  89.9811 15.02539929 44465
STARLINK-30575          
1 58052U 23158B   24208.47993767  .00001536  00000+0  12866-3 0  9997
2 58052  43.0045   3.1811 0001623 275.2487  84.8170 15.02556878 44596
STARLINK-30577          
1 58053U 23158C   24208.73585209  .00001759  00000+0  14527-3 0  9998
2 58053  43.0048   1.6409 0001138 268.9562  91.1150 15.02540181 44623
STARLINK-30566          
1 58054U 23158D   24208.79567735  .00067445  00000+0  49590-2 0  9990
2 58054  43.0052   1.2494 0001353 276.6645  83.4044 15.02543005 44642
STARLINK-30544          
1 58055U 23158E   24208.77903122 -.00000143  00000+0  44945-5 0  9998
2 58055  43.0050   1.1259 0001447 265.4455  94.6222 15.02533502 44595
STARLINK-30553          
1 58056U 23158F   24208.45662759  .00000487  00000+0  51135-4 0  9990
2 58056  43.0039   3.0054 0000958 260.8580  99.2153 15.02537771 44597
STARLINK-30541          
1 58057U 23158G   24208.45996062 -.00000942  00000+0 -54668-4 0  9990
2 58057  43.0043   3.0320 0001290 261.2363  98.8334 15.02545124 44590
STARLINK-30573          
1 58058U 23158H   24208.71922018  .00004677  00000+0  36097-3 0  9992
2 58058  43.0062   1.5381 0001769 279.9469  80.1174 15.02546670 44634
STARLINK-30582          
1 58059U 23158J   24208.70921885  .00002249  00000+0  18149-3 0  9994
2 58059  43.0045   1.4635 0001343 264.9301  95.1388 15.02538838 44634
STARLINK-30558          
1 58060U 23158K   24208.41678769  .00000307  00000+0  37799-4 0  9990
2 58060  43.0042   3.5518 0001385 260.5010  99.5675 15.02540389 44586
STARLINK-30579          
1 58061U 23158L   24208.70649745  .00000691  00000+0  66196-4 0  9994
2 58061  43.0048 336.1277 0001579 273.6032  86.4630 15.02543175 44913
STARLINK-30588          
1 58062U 23158M   24208.50312631  .00000522  00000+0  53721-4 0  9997
2 58062  43.0060   2.4952 0001265 272.7268  87.3430 15.02538189 44595
STARLINK-30585          
1 58063U 23158N   24208.69257155  .00005972  00000+0  45713-3 0  9992
2 58063  43.0067   1.3405 0001602 276.1392  83.9268 15.02507723 44620
STARLINK-30587          
1 58064U 23158P   24208.70588774  .00001297  00000+0  11102-3 0  9990
2 58064  43.0053   1.4379 0000945 269.6155  90.4579 15.02542189 44522
STARLINK-30576          
1 58065U 23158Q   24208.73253230 -.00003024  00000+0 -20892-3 0  9998
2 58065  43.0048   1.6392 0001278 267.4073  92.6623 15.02533533 44526
STARLINK-30571          
1 58066U 23158R   24208.55295418  .00002173  00000+0  17593-3 0  9999
2 58066  43.0034   2.0071 0001515 262.4141  97.6530 15.02534116 44616
STARLINK-30567          
1 58067U 23158S   24208.81340681 -.00012811  00000+0 -93329-3 0  9995
2 58067  43.0047   1.3649 0001722 256.5445 103.5205 15.02603296 44640
STARLINK-30569          
1 58068U 23158T   24208.83216988 -.00013779  00000+0 -10048-2 0  9990
2 58068  43.0046   0.6627 0001534 261.6092  98.4576 15.02616308 44656
STARLINK-30480          
1 58069U 23158U   24208.48425970  .00005322  00000+0  21309-3 0  9991
2 58069  43.0039 340.2258 0001714 246.8885 113.1786 15.25920252 44869
STARLINK-30532          
1 58070U 23158V   24208.49646671  .00000998  00000+0  88966-4 0  9994
2 58070  43.0028   2.4427 0001092 268.5798  91.4919 15.02538623 44607
STARLINK-30513          
1 58071U 23158W   24208.57519187 -.00000705  00000+0 -96086-5 0  9996
2 58071  43.0020 244.5376 0001279 283.1889  76.8824 15.40717507 45967
STARLINK-30506          
1 58072U 23158X   24208.48980856  .00001391  00000+0  11800-3 0  9991
2 58072  43.0041   2.3935 0001293 272.9654  87.1040 15.02538830 44607
STARLINK-30604          
1 58075U 23160A   24208.82970762  .00001154  00000+0  10051-3 0  9994
2 58075  43.0037  51.1360 0000801 241.9791 118.0971 15.02532706 44008
STARLINK-30500          
1 58076U 23160B   24208.57367638  .00000538  00000+0  54877-4 0  9999
2 58076  43.0007  51.7857 0000889 254.0829 105.9915 15.02534754 44004
STARLINK-30613          
1 58077U 23160C   24208.62361999 -.00000248  00000+0 -32761-5 0  9999
2 58077  43.0031  52.1661 0001339 267.4589  92.6100 15.02543852 44010
STARLINK-30597          
1 58078U 23160D   24208.56712754  .00000290  00000+0  36557-4 0  9993
2 58078  43.0066  52.5855 0001524 261.1478  98.9192 15.02537137 43997
STARLINK-30598          
1 58079U 23160E   24208.75325160 -.00000023  00000+0  13371-4 0  9990
2 58079  43.0042  51.4178 0001186 267.6231  92.4476 15.02533355 43992
STARLINK-30603          
1 58080U 23160F   24208.55048358  .00000346  00000+0  40678-4 0  9998
2 58080  43.0035  52.4771 0000635 257.0673 103.0098 15.02538826 43961
STARLINK-30602          
1 58081U 23160G   24208.84955997 -.00000584  00000+0 -28140-4 0  9993
2 58081  43.0058  50.4084 0001634 253.6082 106.4581 15.02543806 44068
STARLINK-30610          
1 58082U 23160H   24208.61363028 -.00000506  00000+0 -22340-4 0  9997
2 58082  43.0084  52.0914 0001484 259.8369 100.2306 15.02541529 44008
